{
  "type": "FeatureCollection",
  "features": [
    {
      "type": "Feature",
      "properties": {
        "norad_id": 41890,
        "name": "CYGFM07",
        "group": "weather",
        "lat": 30.710258502608266,
        "lon": 38.7825869344079,
        "alt_km": 416.35980992313125,
        "timestamp": "2025-12-18T23:35:48.688958+00:00",
        "meta_object_name": "CYGFM07",
        "meta_object_id": "2016-078G",
        "meta_epoch": "2025-12-18T09:24:57.659328",
        "meta_mean_motion": 15.50233776,
        "meta_eccentricity": 0.00101264,
        "meta_inclination": 34.9484,
        "meta_ra_of_asc_node": 344.3859,
        "meta_arg_of_pericenter": 263.9278,
        "meta_mean_anomaly": 96.029,
        "meta_ephemeris_type": 0,
        "meta_classification_type": "U",
        "meta_norad_cat_id": 41890,
        "meta_element_set_no": 999,
        "meta_rev_at_epoch": 50083,
        "meta_bstar": 0.00033098581,
        "meta_mean_motion_dot": 0.00019332,
        "meta_mean_motion_ddot": 0,
        "tle_line1": "1 41890U 16078G   25352.39233402  .00019332  00000+0  33099-3 0  9991",
        "tle_line2": "2 41890  34.9484 344.3859 0010126 263.9278  96.0290 15.50233776500830"
      },
      "geometry": {
        "type": "Point",
        "coordinates": [
          38.7825869344079,
          30.710258502608266
        ]
      }
    },
    {
      "type": "Feature",
      "properties": {
        "norad_id": 41891,
        "name": "CYGFM03",
        "group": "weather",
        "lat": -33.66788770137946,
        "lon": -125.0195219138943,
        "alt_km": 411.7392796584327,
        "timestamp": "2025-12-18T23:35:48.688984+00:00",
        "meta_object_name": "CYGFM03",
        "meta_object_id": "2016-078H",
        "meta_epoch": "2025-12-18T10:08:04.475328",
        "meta_mean_motion": 15.50133143,
        "meta_eccentricity": 0.00096864,
        "meta_inclination": 34.9439,
        "meta_ra_of_asc_node": 346.1113,
        "meta_arg_of_pericenter": 252.1758,
        "meta_mean_anomaly": 107.7907,
        "meta_ephemeris_type": 0,
        "meta_classification_type": "U",
        "meta_norad_cat_id": 41891,
        "meta_element_set_no": 999,
        "meta_rev_at_epoch": 50081,
        "meta_bstar": 0.00034490402,
        "meta_mean_motion_dot": 0.00020074,
        "meta_mean_motion_ddot": 0,
        "tle_line1": "1 41891U 16078H   25352.42227402  .00020074  00000+0  34490-3 0  9990",
        "tle_line2": "2 41891  34.9439 346.1113 0009686 252.1758 107.7907 15.50133143500816"
      },
      "geometry": {
        "type": "Point",
        "coordinates": [
          -125.0195219138943,
          -33.66788770137946
        ]
      }
    },
    {
      "type": "Feature",
      "properties": {
        "norad_id": 43010,
        "name": "FENGYUN 3D",
        "group": "weather",
        "lat": -38.795748773903526,
        "lon": 132.07642286960544,
        "alt_km": 832.3222683300328,
        "timestamp": "2025-12-18T23:35:48.688997+00:00",
        "meta_object_name": "FENGYUN 3D",
        "meta_object_id": "2017-072A",
        "meta_epoch": "2025-12-18T14:06:35.740224",
        "meta_mean_motion": 14.19686452,
        "meta_eccentricity": 0.00012269,
        "meta_inclination": 98.9888,
        "meta_ra_of_asc_node": 318.9857,
        "meta_arg_of_pericenter": 163.7963,
        "meta_mean_anomaly": 196.3252,
        "meta_ephemeris_type": 0,
        "meta_classification_type": "U",
        "meta_norad_cat_id": 43010,
        "meta_element_set_no": 999,
        "meta_rev_at_epoch": 41936,
        "meta_bstar": 0.00011193262,
        "meta_mean_motion_dot": 1.91e-06,
        "meta_mean_motion_ddot": 0,
        "tle_line1": "1 43010U 17072A   25352.58791366  .00000191  00000+0  11193-3 0  9995",
        "tle_line2": "2 43010  98.9888 318.9857 0001226 163.7963 196.3252 14.19686452419364"
      },
      "geometry": {
        "type": "Point",
        "coordinates": [
          132.07642286960544,
          -38.795748773903526
        ]
      }
    },
    {
      "type": "Feature",
      "properties": {
        "norad_id": 43013,
        "name": "NOAA 20 (JPSS-1)",
        "group": "weather",
        "lat": 7.686570780829507,
        "lon": -71.98077937875462,
        "alt_km": 828.2764782232271,
        "timestamp": "2025-12-18T23:35:48.689009+00:00",
        "meta_object_name": "NOAA 20 (JPSS-1)",
        "meta_object_id": "2017-073A",
        "meta_epoch": "2025-12-18T13:24:37.425600",
        "meta_mean_motion": 14.19527218,
        "meta_eccentricity": 0.00021315,
        "meta_inclination": 98.7606,
        "meta_ra_of_asc_node": 288.792,
        "meta_arg_of_pericenter": 78.8418,
        "meta_mean_anomaly": 281.2997,
        "meta_ephemeris_type": 0,
        "meta_classification_type": "U",
        "meta_norad_cat_id": 43013,
        "meta_element_set_no": 999,
        "meta_rev_at_epoch": 41884,
        "meta_bstar": 4.5850475e-05,
        "meta_mean_motion_dot": 5.3e-07,
        "meta_mean_motion_ddot": 0,
        "tle_line1": "1 43013U 17073A   25352.55876650  .00000053  00000+0  45850-4 0  9991",
        "tle_line2": "2 43013  98.7606 288.7920 0002131  78.8418 281.2997 14.19527218418841"
      },
      "geometry": {
        "type": "Point",
        "coordinates": [
          -71.98077937875462,
          7.686570780829507
        ]
      }
    },
    {
      "type": "Feature",
      "properties": {
        "norad_id": 43226,
        "name": "GOES 17",
        "group": "weather",
        "lat": -0.4674560137129304,
        "lon": -7.686396379128641,
        "alt_km": 35782.35349648038,
        "timestamp": "2025-12-18T23:35:48.689022+00:00",
        "meta_object_name": "GOES 17",
        "meta_object_id": "2018-022A",
        "meta_epoch": "2025-12-18T14:34:56.779104",
        "meta_mean_motion": 1.00271137,
        "meta_eccentricity": 0.00030873,
        "meta_inclination": 0.472,
        "meta_ra_of_asc_node": 89.1923,
        "meta_arg_of_pericenter": 191.0453,
        "meta_mean_anomaly": 296.4671,
        "meta_ephemeris_type": 0,
        "meta_classification_type": "U",
        "meta_norad_cat_id": 43226,
        "meta_element_set_no": 999,
        "meta_rev_at_epoch": 2861,
        "meta_bstar": 0,
        "meta_mean_motion_dot": -1.58e-06,
        "meta_mean_motion_ddot": 0,
        "tle_line1": "1 43226U 18022A   25352.60760161 -.00000158  00000+0  00000+0 0  9997",
        "tle_line2": "2 43226   0.4720  89.1923 0003087 191.0453 296.4671  1.00271137 28619"
      },
      "geometry": {
        "type": "Point",
        "coordinates": [
          -7.686396379128641,
          -0.4674560137129304
        ]
      }
    },
    {
      "type": "Feature",
      "properties": {
        "norad_id": 43491,
        "name": "FENGYUN 2H",
        "group": "weather",
        "lat": 2.5322757708872414,
        "lon": 161.09970805623044,
        "alt_km": 35785.21659175137,
        "timestamp": "2025-12-18T23:35:48.689036+00:00",
        "meta_object_name": "FENGYUN 2H",
        "meta_object_id": "2018-050A",
        "meta_epoch": "2025-12-18T15:23:07.164960",
        "meta_mean_motion": 1.00271313,
        "meta_eccentricity": 0.0002421,
        "meta_inclination": 2.5656,
        "meta_ra_of_asc_node": 81.2669,
        "meta_arg_of_pericenter": 165.874,
        "meta_mean_anomaly": 150.4936,
        "meta_ephemeris_type": 0,
        "meta_classification_type": "U",
        "meta_norad_cat_id": 43491,
        "meta_element_set_no": 999,
        "meta_rev_at_epoch": 2762,
        "meta_bstar": 0,
        "meta_mean_motion_dot": -1.07e-06,
        "meta_mean_motion_ddot": 0,
        "tle_line1": "1 43491U 18050A   25352.64105515 -.00000107  00000+0  00000+0 0  9996",
        "tle_line2": "2 43491   2.5656  81.2669 0002421 165.8740 150.4936  1.00271313 27622"
      },
      "geometry": {
        "type": "Point",
        "coordinates": [
          161.09970805623044,
          2.5322757708872414
        ]
      }
    },
    {
      "type": "Feature",
      "properties": {
        "norad_id": 43689,
        "name": "METOP-C",
        "group": "weather",
        "lat": -12.832078910072035,
        "lon": -131.3399679701597,
        "alt_km": 825.4275527486743,
        "timestamp": "2025-12-18T23:35:48.689047+00:00",
        "meta_object_name": "METOP-C",
        "meta_object_id": "2018-087A",
        "meta_epoch": "2025-12-18T14:14:44.782368",
        "meta_mean_motion": 14.21486587,
        "meta_eccentricity": 9.633e-05,
        "meta_inclination": 98.6922,
        "meta_ra_of_asc_node": 50.2734,
        "meta_arg_of_pericenter": 28.8586,
        "meta_mean_anomaly": 331.2644,
        "meta_ephemeris_type": 0,
        "meta_classification_type": "U",
        "meta_norad_cat_id": 43689,
        "meta_element_set_no": 999,
        "meta_rev_at_epoch": 36917,
        "meta_bstar": 7.0445763e-05,
        "meta_mean_motion_dot": 1.1e-06,
        "meta_mean_motion_ddot": 0,
        "tle_line1": "1 43689U 18087A   25352.59357387  .00000110  00000+0  70446-4 0  9994",
        "tle_line2": "2 43689  98.6922  50.2734 0000963  28.8586 331.2644 14.21486587369179"
      },
      "geometry": {
        "type": "Point",
        "coordinates": [
          -131.3399679701597,
          -12.832078910072035
        ]
      }
    }
  ]
}